{
  "type": "FeatureCollection",
  "features": [
    {
      "type": "Feature",
      "properties": {
        "norad_id": 41026,
        "name": "YAOGAN-28",
        "group": "resource",
        "lat": -40.03716154449315,
        "lon": -47.1491863235405,
        "alt_km": 505.40049676933904,
        "timestamp": "2025-12-27T15:27:10.800605+00:00",
        "meta_object_name": "YAOGAN-28",
        "meta_object_id": "2015-064A",
        "meta_epoch": "2025-12-27T08:11:22.773120",
        "meta_mean_motion": 15.2458694,
        "meta_eccentricity": 0.00126286,
        "meta_inclination": 97.2813,
        "meta_ra_of_asc_node": 138.7238,
        "meta_arg_of_pericenter": 79.7454,
        "meta_mean_anomaly": 280.5207,
        "meta_ephemeris_type": 0,
        "meta_classification_type": "U",
        "meta_norad_cat_id": 41026,
        "meta_element_set_no": 999,
        "meta_rev_at_epoch": 56447,
        "meta_bstar": 0.00037414101,
        "meta_mean_motion_dot": 9.175e-05,
        "meta_mean_motion_ddot": 0,
        "tle_line1": "1 41026U 15064A   25361.34123580  .00009175  00000+0  37414-3 0  9995",
        "tle_line2": "2 41026  97.2813 138.7238 0012628  79.7454 280.5207 15.24586940564476"
      },
      "geometry": {
        "type": "Point",
        "coordinates": [
          -47.1491863235405,
          -40.03716154449315
        ]
      }
    },
    {
      "type": "Feature",
      "properties": {
        "norad_id": 41038,
        "name": "YAOGAN-29",
        "group": "resource",
        "lat": -68.4636004034909,
        "lon": -176.0722854370912,
        "alt_km": 627.4857000541715,
        "timestamp": "2025-12-27T15:27:10.800616+00:00",
        "meta_object_name": "YAOGAN-29",
        "meta_object_id": "2015-069A",
        "meta_epoch": "2025-12-27T07:51:06.098688",
        "meta_mean_motion": 14.82898603,
        "meta_eccentricity": 0.00010065,
        "meta_inclination": 98.0209,
        "meta_ra_of_asc_node": 24.5447,
        "meta_arg_of_pericenter": 158.3757,
        "meta_mean_anomaly": 201.7498,
        "meta_ephemeris_type": 0,
        "meta_classification_type": "U",
        "meta_norad_cat_id": 41038,
        "meta_element_set_no": 999,
        "meta_rev_at_epoch": 54515,
        "meta_bstar": 6.200962e-05,
        "meta_mean_motion_dot": 4.48e-06,
        "meta_mean_motion_ddot": 0,
        "tle_line1": "1 41038U 15069A   25361.32715392  .00000448  00000+0  62010-4 0  9994",
        "tle_line2": "2 41038  98.0209  24.5447 0001006 158.3757 201.7498 14.82898603545155"
      },
      "geometry": {
        "type": "Point",
        "coordinates": [
          -176.0722854370912,
          -68.4636004034909
        ]
      }
    },
    {
      "type": "Feature",
      "properties": {
        "norad_id": 41167,
        "name": "KENT RIDGE 1",
        "group": "resource",
        "lat": -10.970656941035418,
        "lon": 54.07401038099981,
        "alt_km": 493.9576437016012,
        "timestamp": "2025-12-27T15:27:10.800627+00:00",
        "meta_object_name": "KENT RIDGE 1",
        "meta_object_id": "2015-077B",
        "meta_epoch": "2025-12-26T22:21:21.397824",
        "meta_mean_motion": 15.21743128,
        "meta_eccentricity": 0.0008527,
        "meta_inclination": 14.9792,
        "meta_ra_of_asc_node": 105.8239,
        "meta_arg_of_pericenter": 331.0402,
        "meta_mean_anomaly": 28.9446,
        "meta_ephemeris_type": 0,
        "meta_classification_type": "U",
        "meta_norad_cat_id": 41167,
        "meta_element_set_no": 999,
        "meta_rev_at_epoch": 55480,
        "meta_bstar": 0.00017735,
        "meta_mean_motion_dot": 4.899e-05,
        "meta_mean_motion_ddot": 0,
        "tle_line1": "1 41167U 15077B   25360.93149766  .00004899  00000+0  17735-3 0  9995",
        "tle_line2": "2 41167  14.9792 105.8239 0008527 331.0402  28.9446 15.21743128554805"
      },
      "geometry": {
        "type": "Point",
        "coordinates": [
          54.07401038099981,
          -10.970656941035418
        ]
      }
    },
    {
      "type": "Feature",
      "properties": {
        "norad_id": 41194,
        "name": "GAOFEN-4",
        "group": "resource",
        "lat": -0.012530529441899776,
        "lon": 73.81616279252499,
        "alt_km": 35789.62477343078,
        "timestamp": "2025-12-27T15:27:10.800640+00:00",
        "meta_object_name": "GAOFEN-4",
        "meta_object_id": "2015-083A",
        "meta_epoch": "2025-12-27T06:39:26.773344",
        "meta_mean_motion": 1.0026871,
        "meta_eccentricity": 0.00028264,
        "meta_inclination": 0.2052,
        "meta_ra_of_asc_node": 82.0629,
        "meta_arg_of_pericenter": 94.5902,
        "meta_mean_anomaly": 124.9112,
        "meta_ephemeris_type": 0,
        "meta_classification_type": "U",
        "meta_norad_cat_id": 41194,
        "meta_element_set_no": 999,
        "meta_rev_at_epoch": 3680,
        "meta_bstar": 0,
        "meta_mean_motion_dot": -3.12e-06,
        "meta_mean_motion_ddot": 0,
        "tle_line1": "1 41194U 15083A   25361.27739321 -.00000312  00000+0  00000+0 0  9992",
        "tle_line2": "2 41194   0.2052  82.0629 0002826  94.5902 124.9112  1.00268710 36806"
      },
      "geometry": {
        "type": "Point",
        "coordinates": [
          73.81616279252499,
          -0.012530529441899776
        ]
      }
    },
    {
      "type": "Feature",
      "properties": {
        "norad_id": 41240,
        "name": "JASON-3",
        "group": "resource",
        "lat": -65.94043899790998,
        "lon": 41.70884691607794,
        "alt_km": 1311.6778378526988,
        "timestamp": "2025-12-27T15:27:10.800650+00:00",
        "meta_object_name": "JASON-3",
        "meta_object_id": "2016-002A",
        "meta_epoch": "2025-12-27T06:35:15.730368",
        "meta_mean_motion": 12.87627215,
        "meta_eccentricity": 0.00073385,
        "meta_inclination": 66.0408,
        "meta_ra_of_asc_node": 127.2665,
        "meta_arg_of_pericenter": 271.7075,
        "meta_mean_anomaly": 88.3103,
        "meta_ephemeris_type": 0,
        "meta_classification_type": "U",
        "meta_norad_cat_id": 41240,
        "meta_element_set_no": 999,
        "meta_rev_at_epoch": 46511,
        "meta_bstar": 0.00017544184,
        "meta_mean_motion_dot": -1.8e-07,
        "meta_mean_motion_ddot": 0,
        "tle_line1": "1 41240U 16002A   25361.27448762 -.00000018  00000+0  17544-3 0  9990",
        "tle_line2": "2 41240  66.0408 127.2665 0007338 271.7075  88.3103 12.87627215465117"
      },
      "geometry": {
        "type": "Point",
        "coordinates": [
          41.70884691607794,
          -65.94043899790998
        ]
      }
    },
    {
      "type": "Feature",
      "properties": {
        "norad_id": 41335,
        "name": "SENTINEL-3A",
        "group": "resource",
        "lat": -1.0226690856845868,
        "lon": -113.70711054178825,
        "alt_km": 805.6505718127437,
        "timestamp": "2025-12-27T15:27:10.800661+00:00",
        "meta_object_name": "SENTINEL-3A",
        "meta_object_id": "2016-011A",
        "meta_epoch": "2025-12-27T06:11:31.982784",
        "meta_mean_motion": 14.26736331,
        "meta_eccentricity": 8.885e-05,
        "meta_inclination": 98.6295,
        "meta_ra_of_asc_node": 66.0678,
        "meta_arg_of_pericenter": 98.1979,
        "meta_mean_anomaly": 261.9302,
        "meta_ephemeris_type": 0,
        "meta_classification_type": "U",
        "meta_norad_cat_id": 41335,
        "meta_element_set_no": 999,
        "meta_rev_at_epoch": 51354,
        "meta_bstar": 8.1888332e-05,
        "meta_mean_motion_dot": 1.54e-06,
        "meta_mean_motion_ddot": 0,
        "tle_line1": "1 41335U 16011A   25361.25800906  .00000154  00000+0  81888-4 0  9998",
        "tle_line2": "2 41335  98.6295  66.0678 0000888  98.1979 261.9302 14.26736331513544"
      },
      "geometry": {
        "type": "Point",
        "coordinates": [
          -113.70711054178825,
          -1.0226690856845868
        ]
      }
    },
    {
      "type": "Feature",
      "properties": {
        "norad_id": 41556,
        "name": "ZIYUAN 3-02 (ZY 3-02)",
        "group": "resource",
        "lat": -43.739074870932065,
        "lon": 82.70706445039117,
        "alt_km": 513.3330521125299,
        "timestamp": "2025-12-27T15:27:10.800671+00:00",
        "meta_object_name": "ZIYUAN 3-02 (ZY 3-02)",
        "meta_object_id": "2016-033A",
        "meta_epoch": "2025-12-27T07:45:14.779872",
        "meta_mean_motion": 15.21264779,
        "meta_eccentricity": 0.00116232,
        "meta_inclination": 97.4022,
        "meta_ra_of_asc_node": 75.2452,
        "meta_arg_of_pericenter": 191.9863,
        "meta_mean_anomaly": 168.1098,
        "meta_ephemeris_type": 0,
        "meta_classification_type": "U",
        "meta_norad_cat_id": 41556,
        "meta_element_set_no": 999,
        "meta_rev_at_epoch": 53185,
        "meta_bstar": 0.00034533241,
        "meta_mean_motion_dot": 7.663e-05,
        "meta_mean_motion_ddot": 0,
        "tle_line1": "1 41556U 16033A   25361.32308773  .00007663  00000+0  34533-3 0  9996",
        "tle_line2": "2 41556  97.4022  75.2452 0011623 191.9863 168.1098 15.21264779531851"
      },
      "geometry": {
        "type": "Point",
        "coordinates": [
          82.70706445039117,
          -43.739074870932065
        ]
      }
    }
  ]
}